{
  "type": "FeatureCollection",
  "features": [
    {
      "type": "Feature",
      "properties": {
        "norad_id": 47036,
        "name": "FENGYUN 1C DEB",
        "group": "fengyun-1c-debris",
        "lat": -66.02617392870636,
        "lon": 59.10922134816402,
        "alt_km": 886.6661079031337,
        "timestamp": "2025-12-21T16:47:55.029171+00:00",
        "meta_object_name": "FENGYUN 1C DEB",
        "meta_object_id": "1999-025FBN",
        "meta_epoch": "2025-12-13T21:36:35.845632",
        "meta_mean_motion": 14.15176928,
        "meta_eccentricity": 0.00688587,
        "meta_inclination": 98.7222,
        "meta_ra_of_asc_node": 31.2877,
        "meta_arg_of_pericenter": 94.4248,
        "meta_mean_anomaly": 84.992,
        "meta_ephemeris_type": 0,
        "meta_classification_type": "U",
        "meta_norad_cat_id": 47036,
        "meta_element_set_no": 999,
        "meta_rev_at_epoch": 59943,
        "meta_bstar": 0.0001889836,
        "meta_mean_motion_dot": 3.33e-06,
        "meta_mean_motion_ddot": 0,
        "tle_line1": "1 47036U 99025FBN 25347.90041488  .00000333  00000+0  18898-3 0  9995",
        "tle_line2": "2 47036  98.7222  31.2877 0068858  94.4248  84.9920 14.15176928599432"
      },
      "geometry": {
        "type": "Point",
        "coordinates": [
          59.10922134816402,
          -66.02617392870636
        ]
      }
    },
    {
      "type": "Feature",
      "properties": {
        "norad_id": 47040,
        "name": "FENGYUN 1C DEB",
        "group": "fengyun-1c-debris",
        "lat": 19.409805972311954,
        "lon": 87.3549363612766,
        "alt_km": 841.0967853893453,
        "timestamp": "2025-12-21T16:47:55.029181+00:00",
        "meta_object_name": "FENGYUN 1C DEB",
        "meta_object_id": "1999-025FBS",
        "meta_epoch": "2025-12-15T23:27:12.170880",
        "meta_mean_motion": 14.06493473,
        "meta_eccentricity": 0.00627218,
        "meta_inclination": 100.2945,
        "meta_ra_of_asc_node": 257.1831,
        "meta_arg_of_pericenter": 223.9582,
        "meta_mean_anomaly": 135.6583,
        "meta_ephemeris_type": 0,
        "meta_classification_type": "U",
        "meta_norad_cat_id": 47040,
        "meta_element_set_no": 999,
        "meta_rev_at_epoch": 89154,
        "meta_bstar": 0.00050503613,
        "meta_mean_motion_dot": 7.95e-06,
        "meta_mean_motion_ddot": 0,
        "tle_line1": "1 47040U 99025FBS 25349.97722420  .00000795  00000+0  50504-3 0  9993",
        "tle_line2": "2 47040 100.2945 257.1831 0062721 223.9582 135.6583 14.06493473891543"
      },
      "geometry": {
        "type": "Point",
        "coordinates": [
          87.3549363612766,
          19.409805972311954
        ]
      }
    },
    {
      "type": "Feature",
      "properties": {
        "norad_id": 47041,
        "name": "FENGYUN 1C DEB",
        "group": "fengyun-1c-debris",
        "lat": 81.64364647561699,
        "lon": -58.3942858900654,
        "alt_km": 532.1373130382881,
        "timestamp": "2025-12-21T16:47:55.029191+00:00",
        "meta_object_name": "FENGYUN 1C DEB",
        "meta_object_id": "1999-025FBT",
        "meta_epoch": "2025-12-20T20:28:57.423360",
        "meta_mean_motion": 15.07559157,
        "meta_eccentricity": 0.00151176,
        "meta_inclination": 98.2551,
        "meta_ra_of_asc_node": 21.96,
        "meta_arg_of_pericenter": 159.3194,
        "meta_mean_anomaly": 18.2404,
        "meta_ephemeris_type": 0,
        "meta_classification_type": "U",
        "meta_norad_cat_id": 47041,
        "meta_element_set_no": 999,
        "meta_rev_at_epoch": 71311,
        "meta_bstar": 0.0010651389,
        "meta_mean_motion_dot": 0.00016188,
        "meta_mean_motion_ddot": 0,
        "tle_line1": "1 47041U 99025FBT 25354.85344240  .00016188  00000+0  10651-2 0  9998",
        "tle_line2": "2 47041  98.2551  21.9600 0015117 159.3194  18.2404 15.07559157713110"
      },
      "geometry": {
        "type": "Point",
        "coordinates": [
          -58.3942858900654,
          81.64364647561699
        ]
      }
    },
    {
      "type": "Feature",
      "properties": {
        "norad_id": 47042,
        "name": "FENGYUN 1C DEB",
        "group": "fengyun-1c-debris",
        "lat": -77.97855736769162,
        "lon": -58.49630795135473,
        "alt_km": 823.6156539044123,
        "timestamp": "2025-12-21T16:47:55.029201+00:00",
        "meta_object_name": "FENGYUN 1C DEB",
        "meta_object_id": "1999-025FBU",
        "meta_epoch": "2025-12-19T12:00:36.072000",
        "meta_mean_motion": 14.22844145,
        "meta_eccentricity": 0.0055101,
        "meta_inclination": 99.0013,
        "meta_ra_of_asc_node": 251.153,
        "meta_arg_of_pericenter": 15.4542,
        "meta_mean_anomaly": 162.9996,
        "meta_ephemeris_type": 0,
        "meta_classification_type": "U",
        "meta_norad_cat_id": 47042,
        "meta_element_set_no": 999,
        "meta_rev_at_epoch": 62617,
        "meta_bstar": 0.00020738,
        "meta_mean_motion_dot": 4.26e-06,
        "meta_mean_motion_ddot": 0,
        "tle_line1": "1 47042U 99025FBU 25353.50041750  .00000426  00000+0  20738-3 0  9996",
        "tle_line2": "2 47042  99.0013 251.1530 0055101  15.4542 162.9996 14.22844145626170"
      },
      "geometry": {
        "type": "Point",
        "coordinates": [
          -58.49630795135473,
          -77.97855736769162
        ]
      }
    },
    {
      "type": "Feature",
      "properties": {
        "norad_id": 47100,
        "name": "FENGYUN 1C DEB",
        "group": "fengyun-1c-debris",
        "lat": -65.20277841003684,
        "lon": -24.230447288553307,
        "alt_km": 716.3050255648986,
        "timestamp": "2025-12-21T16:47:55.029211+00:00",
        "meta_object_name": "FENGYUN 1C DEB",
        "meta_object_id": "1999-025FBY",
        "meta_epoch": "2025-12-19T23:57:11.875104",
        "meta_mean_motion": 14.51522171,
        "meta_eccentricity": 0.00893614,
        "meta_inclination": 99.0201,
        "meta_ra_of_asc_node": 174.0542,
        "meta_arg_of_pericenter": 331.9168,
        "meta_mean_anomaly": 27.722,
        "meta_ephemeris_type": 0,
        "meta_classification_type": "U",
        "meta_norad_cat_id": 47100,
        "meta_element_set_no": 999,
        "meta_rev_at_epoch": 26873,
        "meta_bstar": 0.0012067674,
        "meta_mean_motion_dot": 5.03e-05,
        "meta_mean_motion_ddot": 0,
        "tle_line1": "1 47100U 99025FBY 25353.99805411  .00005030  00000+0  12068-2 0  9998",
        "tle_line2": "2 47100  99.0201 174.0542 0089361 331.9168  27.7220 14.51522171268731"
      },
      "geometry": {
        "type": "Point",
        "coordinates": [
          -24.230447288553307,
          -65.20277841003684
        ]
      }
    },
    {
      "type": "Feature",
      "properties": {
        "norad_id": 47104,
        "name": "FENGYUN 1C DEB",
        "group": "fengyun-1c-debris",
        "lat": -46.723364196020356,
        "lon": -164.28699248326507,
        "alt_km": 830.5289534787662,
        "timestamp": "2025-12-21T16:47:55.029221+00:00",
        "meta_object_name": "FENGYUN 1C DEB",
        "meta_object_id": "1999-025FCC",
        "meta_epoch": "2025-12-20T19:25:32.617920",
        "meta_mean_motion": 14.19434358,
        "meta_eccentricity": 0.00403981,
        "meta_inclination": 98.9084,
        "meta_ra_of_asc_node": 24.4065,
        "meta_arg_of_pericenter": 313.3102,
        "meta_mean_anomaly": 46.4707,
        "meta_ephemeris_type": 0,
        "meta_classification_type": "U",
        "meta_norad_cat_id": 47104,
        "meta_element_set_no": 999,
        "meta_rev_at_epoch": 62487,
        "meta_bstar": 0.00016269056,
        "meta_mean_motion_dot": 2.99e-06,
        "meta_mean_motion_ddot": 0,
        "tle_line1": "1 47104U 99025FCC 25354.80940530  .00000299  00000+0  16269-3 0  9995",
        "tle_line2": "2 47104  98.9084  24.4065 0040398 313.3102  46.4707 14.19434358624871"
      },
      "geometry": {
        "type": "Point",
        "coordinates": [
          -164.28699248326507,
          -46.723364196020356
        ]
      }
    }
  ]
}